start=new Date('2022-10-31T00:00:00.000Z').valueOf();
sats=[{"CLASSIFICATION_TYPE":"U","OBJECT_TYPE":"PAYLOAD","EPOCH":"2022-10-30T20:32:37.954176","SEMIMAJOR_AXIS":"6925.361","BSTAR":"-0.00005227900000","DECAY_DATE":null,"OBJECT_ID":"2021-009AT","OBJECT_NAME":"STARLINK-1994","REV_AT_EPOCH":"9603","LAUNCH_DATE":"2021-02-04","TIME_SYSTEM":"UTC","SITE":"AFETR","ELEMENT_SET_NO":"999","MEAN_MOTION":"15.06396058","APOAPSIS":"548.055","NORAD_CAT_ID":"47589","TLE_LINE1":"1 47589U 21009AT  22303.85599484 -.00001060  00000-0 -52279-4 0  9995","GP_ID":"216528977","COUNTRY_CODE":"US","TLE_LINE2":"2 47589  53.0543 124.6070 0001198 102.9291 257.1831 15.06396058 96036","FILE":"3637924","RA_OF_ASC_NODE":"124.6070","MEAN_MOTION_DDOT":"0.0000000000000","MEAN_MOTION_DOT":"-0.00001060","PERIAPSIS":"546.396","RCS_SIZE":"LARGE","ECCENTRICITY":"0.00011980","REF_FRAME":"TEME","CENTER_NAME":"EARTH","PERIOD":"95.592","INCLINATION":"53.0543","MEAN_ANOMALY":"257.1831","MEAN_ELEMENT_THEORY":"SGP4","ARG_OF_PERICENTER":"102.9291","EPHEMERIS_TYPE":"0"},{"EPHEMERIS_TYPE":"0","ARG_OF_PERICENTER":"92.6303","MEAN_ELEMENT_THEORY":"SGP4","PERIOD":"95.593","MEAN_ANOMALY":"267.4842","INCLINATION":"53.0547","CENTER_NAME":"EARTH","REF_FRAME":"TEME","ECCENTRICITY":"0.00013600","PERIAPSIS":"546.295","RCS_SIZE":"LARGE","MEAN_MOTION_DDOT":"0.0000000000000","MEAN_MOTION_DOT":"0.00000375","RA_OF_ASC_NODE":"144.6558","FILE":"3637924","COUNTRY_CODE":"US","TLE_LINE2":"2 47590  53.0547 144.6558 0001360  92.6303 267.4842 15.06392449 95759","GP_ID":"216527737","TLE_LINE1":"1 47590U 21009AU  22303.84677251  .00000375  00000-0  44056-4 0  9995","NORAD_CAT_ID":"47590","APOAPSIS":"548.179","ELEMENT_SET_NO":"999","SITE":"AFETR","MEAN_MOTION":"15.06392449","TIME_SYSTEM":"UTC","LAUNCH_DATE":"2021-02-04","REV_AT_EPOCH":"9575","OBJECT_NAME":"STARLINK-1995","OBJECT_ID":"2021-009AU","DECAY_DATE":null,"BSTAR":"0.00004405600000","SEMIMAJOR_AXIS":"6925.372","EPOCH":"2022-10-30T20:19:21.144864","OBJECT_TYPE":"PAYLOAD","CLASSIFICATION_TYPE":"U"},{"CENTER_NAME":"EARTH","PERIOD":"95.592","MEAN_ANOMALY":"269.7069","INCLINATION":"53.0536","MEAN_ELEMENT_THEORY":"SGP4","EPHEMERIS_TYPE":"0","ARG_OF_PERICENTER":"90.4076","PERIAPSIS":"546.257","RCS_SIZE":"LARGE","MEAN_MOTION_DOT":"-0.00000446","MEAN_MOTION_DDOT":"0.0000000000000","ECCENTRICITY":"0.00013620","REF_FRAME":"TEME","RA_OF_ASC_NODE":"124.9215","TLE_LINE1":"1 47591U 21009AV  22303.78597007 -.00000446  00000-0 -11029-4 0  9994","COUNTRY_CODE":"US","TLE_LINE2":"2 47591  53.0536 124.9215 0001362  90.4076 269.7069 15.06404506 96029","GP_ID":"216527488","FILE":"3637924","APOAPSIS":"548.143","NORAD_CAT_ID":"47591","OBJECT_NAME":"STARLINK-1996","REV_AT_EPOCH":"9602","TIME_SYSTEM":"UTC","LAUNCH_DATE":"2021-02-04","SITE":"AFETR","MEAN_MOTION":"15.06404506","ELEMENT_SET_NO":"999","BSTAR":"-0.00001102900000","DECAY_DATE":null,"OBJECT_ID":"2021-009AV","OBJECT_TYPE":"PAYLOAD","CLASSIFICATION_TYPE":"U","EPOCH":"2022-10-30T18:51:47.814048","SEMIMAJOR_AXIS":"6925.335"},{"ECCENTRICITY":"0.00013810","RCS_SIZE":"LARGE","PERIAPSIS":"546.271","MEAN_MOTION_DDOT":"0.0000000000000","MEAN_MOTION_DOT":"-0.00000104","REF_FRAME":"TEME","MEAN_ANOMALY":"251.3909","PERIOD":"95.592","INCLINATION":"53.0526","CENTER_NAME":"EARTH","EPHEMERIS_TYPE":"0","ARG_OF_PERICENTER":"108.7230","MEAN_ELEMENT_THEORY":"SGP4","TLE_LINE1":"1 47592U 21009AW  22303.88363296 -.00000104  00000-0  11893-4 0  9996","FILE":"3637924","COUNTRY_CODE":"US","TLE_LINE2":"2 47592  53.0526 144.4820 0001381 108.7230 251.3909 15.06395608 95755","GP_ID":"216528234","RA_OF_ASC_NODE":"144.4820","REV_AT_EPOCH":"9575","OBJECT_NAME":"STARLINK-1997","SITE":"AFETR","MEAN_MOTION":"15.06395608","ELEMENT_SET_NO":"999","TIME_SYSTEM":"UTC","LAUNCH_DATE":"2021-02-04","APOAPSIS":"548.183","NORAD_CAT_ID":"47592","OBJECT_TYPE":"PAYLOAD","CLASSIFICATION_TYPE":"U","SEMIMAJOR_AXIS":"6925.362","EPOCH":"2022-10-30T21:12:25.887744","BSTAR":"0.00001189300000","OBJECT_ID":"2021-009AW","DECAY_DATE":null},{"NORAD_CAT_ID":"47593","APOAPSIS":"548.165","TIME_SYSTEM":"UTC","LAUNCH_DATE":"2021-02-04","ELEMENT_SET_NO":"999","SITE":"AFETR","MEAN_MOTION":"15.06393992","OBJECT_NAME":"STARLINK-1998","REV_AT_EPOCH":"9575","DECAY_DATE":null,"OBJECT_ID":"2021-009AX","BSTAR":"0.00003383900000","EPOCH":"2022-10-30T20:29:57.839424","SEMIMAJOR_AXIS":"6925.367","OBJECT_TYPE":"PAYLOAD","CLASSIFICATION_TYPE":"U","MEAN_ELEMENT_THEORY":"SGP4","ARG_OF_PERICENTER":"91.8683","EPHEMERIS_TYPE":"0","CENTER_NAME":"EARTH","PERIOD":"95.593","MEAN_ANOMALY":"268.2460","INCLINATION":"53.0542","REF_FRAME":"TEME","RCS_SIZE":"LARGE","PERIAPSIS":"546.299","MEAN_MOTION_DDOT":"0.0000000000000","MEAN_MOTION_DOT":"0.00000223","ECCENTRICITY":"0.00013470","RA_OF_ASC_NODE":"144.5997","TLE_LINE2":"2 47593  53.0542 144.5997 0001347  91.8683 268.2460 15.06393992 95759","COUNTRY_CODE":"US","GP_ID":"216528478","FILE":"3637924","TLE_LINE1":"1 47593U 21009AX  22303.85414166  .00000223  00000-0  33839-4 0  9992"},{"CLASSIFICATION_TYPE":"U","OBJECT_TYPE":"PAYLOAD","SEMIMAJOR_AXIS":"6925.384","EPOCH":"2022-10-30T21:17:44.917152","BSTAR":"0.00016581000000","OBJECT_ID":"2021-009AY","DECAY_DATE":null,"REV_AT_EPOCH":"9575","OBJECT_NAME":"STARLINK-1999","SITE":"AFETR","MEAN_MOTION":"15.06388513","ELEMENT_SET_NO":"999","LAUNCH_DATE":"2021-02-04","TIME_SYSTEM":"UTC","APOAPSIS":"548.290","NORAD_CAT_ID":"47594","TLE_LINE1":"1 47594U 21009AY  22303.88732543  .00002188  00000-0  16581-3 0  9994","FILE":"3637924","GP_ID":"216527238","COUNTRY_CODE":"US","TLE_LINE2":"2 47594  53.0534 144.4581 0001503 110.4773 249.6378 15.06388513 95755","RA_OF_ASC_NODE":"144.4581","ECCENTRICITY":"0.00015030","MEAN_MOTION_DDOT":"0.0000000000000","MEAN_MOTION_DOT":"0.00002188","PERIAPSIS":"546.208","RCS_SIZE":"LARGE","REF_FRAME":"TEME","PERIOD":"95.593","INCLINATION":"53.0534","MEAN_ANOMALY":"249.6378","CENTER_NAME":"EARTH","ARG_OF_PERICENTER":"110.4773","EPHEMERIS_TYPE":"0","MEAN_ELEMENT_THEORY":"SGP4"},{"DECAY_DATE":null,"OBJECT_ID":"2021-009AZ","BSTAR":"-0.00051500000000","EPOCH":"2022-10-30T20:56:30.753888","SEMIMAJOR_AXIS":"6925.365","CLASSIFICATION_TYPE":"U","OBJECT_TYPE":"PAYLOAD","NORAD_CAT_ID":"47595","APOAPSIS":"548.277","LAUNCH_DATE":"2021-02-04","TIME_SYSTEM":"UTC","SITE":"AFETR","MEAN_MOTION":"15.06394580","ELEMENT_SET_NO":"999","OBJECT_NAME":"STARLINK-2000","REV_AT_EPOCH":"9575","RA_OF_ASC_NODE":"144.5138","GP_ID":"216527988","COUNTRY_CODE":"US","TLE_LINE2":"2 47595  53.0523 144.5138 0001511  92.4479 267.6683 15.06394580 95754","FILE":"3637924","TLE_LINE1":"1 47595U 21009AZ  22303.87257817 -.00007943  00000-0 -51500-3 0  9996","MEAN_ELEMENT_THEORY":"SGP4","EPHEMERIS_TYPE":"0","ARG_OF_PERICENTER":"92.4479","CENTER_NAME":"EARTH","PERIOD":"95.592","INCLINATION":"53.0523","MEAN_ANOMALY":"267.6683","REF_FRAME":"TEME","MEAN_MOTION_DDOT":"0.0000000000000","MEAN_MOTION_DOT":"-0.00007943","RCS_SIZE":"LARGE","PERIAPSIS":"546.184","ECCENTRICITY":"0.00015110"},{"BSTAR":"-0.00000527650000","OBJECT_ID":"2021-009BA","DECAY_DATE":null,"CLASSIFICATION_TYPE":"U","OBJECT_TYPE":"PAYLOAD","SEMIMAJOR_AXIS":"6925.370","EPOCH":"2022-10-30T21:01:49.169856","APOAPSIS":"548.354","NORAD_CAT_ID":"47596","REV_AT_EPOCH":"9575","OBJECT_NAME":"STARLINK-2001","ELEMENT_SET_NO":"999","SITE":"AFETR","MEAN_MOTION":"15.06392974","LAUNCH_DATE":"2021-02-04","TIME_SYSTEM":"UTC","RA_OF_ASC_NODE":"144.5094","TLE_LINE1":"1 47596U 21009BA  22303.87626354 -.00000360  00000-0 -52765-5 0  9995","FILE":"3637924","GP_ID":"216528734","COUNTRY_CODE":"US","TLE_LINE2":"2 47596  53.0545 144.5094 0001616 125.3595 234.7545 15.06392974 95758","MEAN_ANOMALY":"234.7545","PERIOD":"95.593","INCLINATION":"53.0545","CENTER_NAME":"EARTH","ARG_OF_PERICENTER":"125.3595","EPHEMERIS_TYPE":"0","MEAN_ELEMENT_THEORY":"SGP4","ECCENTRICITY":"0.00016160","MEAN_MOTION_DDOT":"0.0000000000000","MEAN_MOTION_DOT":"-0.00000360","RCS_SIZE":"LARGE","PERIAPSIS":"546.116","REF_FRAME":"TEME"},{"EPOCH":"2022-10-30T20:51:12.411360","SEMIMAJOR_AXIS":"6925.374","OBJECT_TYPE":"PAYLOAD","CLASSIFICATION_TYPE":"U","DECAY_DATE":null,"OBJECT_ID":"2021-009BB","BSTAR":"0.00002333800000","TIME_SYSTEM":"UTC","LAUNCH_DATE":"2021-02-04","MEAN_MOTION":"15.06391639","SITE":"AFETR","ELEMENT_SET_NO":"999","OBJECT_NAME":"STARLINK-2002","REV_AT_EPOCH":"9575","NORAD_CAT_ID":"47597","APOAPSIS":"548.161","COUNTRY_CODE":"US","TLE_LINE2":"2 47597  53.0553 144.5469 0001331  97.5952 262.5188 15.06391639 95754","GP_ID":"216528978","FILE":"3637924","TLE_LINE1":"1 47597U 21009BB  22303.86889365  .00000066  00000-0  23338-4 0  9992","RA_OF_ASC_NODE":"144.5469","REF_FRAME":"TEME","PERIAPSIS":"546.317","RCS_SIZE":"LARGE","MEAN_MOTION_DDOT":"0.0000000000000","MEAN_MOTION_DOT":"0.00000066","ECCENTRICITY":"0.00013310","MEAN_ELEMENT_THEORY":"SGP4","ARG_OF_PERICENTER":"97.5952","EPHEMERIS_TYPE":"0","CENTER_NAME":"EARTH","PERIOD":"95.593","INCLINATION":"53.0553","MEAN_ANOMALY":"262.5188"},{"ARG_OF_PERICENTER":"120.9358","EPHEMERIS_TYPE":"0","MEAN_ELEMENT_THEORY":"SGP4","INCLINATION":"53.0545","PERIOD":"95.592","MEAN_ANOMALY":"239.1777","CENTER_NAME":"EARTH","REF_FRAME":"TEME","ECCENTRICITY":"0.00014920","RCS_SIZE":"LARGE","PERIAPSIS":"546.191","MEAN_MOTION_DDOT":"0.0000000000000","MEAN_MOTION_DOT":"-0.00000404","RA_OF_ASC_NODE":"115.0985","FILE":"3637924","TLE_LINE2":"2 47598  53.0545 115.0985 0001492 120.9358 239.1777 15.06396503 96166","COUNTRY_CODE":"US","GP_ID":"216527738","TLE_LINE1":"1 47598U 21009BC  22303.74633557 -.00000404  00000-0 -82292-5 0  9993","NORAD_CAT_ID":"47598","APOAPSIS":"548.258","SITE":"AFETR","MEAN_MOTION":"15.06396503","ELEMENT_SET_NO":"999","TIME_SYSTEM":"UTC","LAUNCH_DATE":"2021-02-04","REV_AT_EPOCH":"9616","OBJECT_NAME":"STARLINK-2003","OBJECT_ID":"2021-009BC","DECAY_DATE":null,"BSTAR":"-0.00000822920000","SEMIMAJOR_AXIS":"6925.359","EPOCH":"2022-10-30T17:54:43.393248","OBJECT_TYPE":"PAYLOAD","CLASSIFICATION_TYPE":"U"}];
